start=new Date('2023-05-07T00:00:00.000Z').valueOf();
sats=[{"CLASSIFICATION_TYPE":"U","EPHEMERIS_TYPE":"0","OBJECT_TYPE":"PAYLOAD","MEAN_ELEMENT_THEORY":"SGP4","OBJECT_NAME":"STARLINK-3733","MEAN_MOTION":"15.08835704","EPOCH":"2023-05-06T01:47:57.025248","SITE":"AFETR","PERIOD":"95.438","DECAY_DATE":null,"RCS_SIZE":"LARGE","RA_OF_ASC_NODE":"51.6407","APOAPSIS":"540.728","MEAN_ANOMALY":"250.9657","OBJECT_ID":"2022-029BB","LAUNCH_DATE":"2022-03-19","SEMIMAJOR_AXIS":"6917.894","BSTAR":"0.00003290700000","REF_FRAME":"TEME","REV_AT_EPOCH":"6414","TLE_LINE1":"1 52137U 22029BB  23126.07496557  .00000236  00000-0  32907-4 0  9996","TIME_SYSTEM":"UTC","FILE":"3902298","MEAN_MOTION_DDOT":"0.0000000000000","ARG_OF_PERICENTER":"109.1487","PERIAPSIS":"538.789","CENTER_NAME":"EARTH","TLE_LINE2":"2 52137  53.2171  51.6407 0001401 109.1487 250.9657 15.08835704 64148","ELEMENT_SET_NO":"999","GP_ID":"231351610","COUNTRY_CODE":"US","MEAN_MOTION_DOT":"0.00000236","NORAD_CAT_ID":"52137","ECCENTRICITY":"0.00014010","INCLINATION":"53.2171"},{"EPOCH":"2023-05-06T01:58:32.727936","MEAN_ELEMENT_THEORY":"SGP4","OBJECT_NAME":"STARLINK-3723","MEAN_MOTION":"15.08838081","CLASSIFICATION_TYPE":"U","OBJECT_TYPE":"PAYLOAD","EPHEMERIS_TYPE":"0","SITE":"AFETR","PERIOD":"95.438","DECAY_DATE":null,"APOAPSIS":"540.438","RA_OF_ASC_NODE":"51.6073","RCS_SIZE":"LARGE","LAUNCH_DATE":"2022-03-19","SEMIMAJOR_AXIS":"6917.886","BSTAR":"0.00000823450000","MEAN_ANOMALY":"276.6458","OBJECT_ID":"2022-029BC","FILE":"3902298","MEAN_MOTION_DDOT":"0.0000000000000","REV_AT_EPOCH":"6414","REF_FRAME":"TEME","TIME_SYSTEM":"UTC","TLE_LINE1":"1 52138U 22029BC  23126.08232324 -.00000157  00000-0  82345-5 0  9993","TLE_LINE2":"2 52138  53.2168  51.6073 0000992  83.4647 276.6458 15.08838081 64145","CENTER_NAME":"EARTH","PERIAPSIS":"539.065","ARG_OF_PERICENTER":"83.4647","GP_ID":"231351860","COUNTRY_CODE":"US","ELEMENT_SET_NO":"999","MEAN_MOTION_DOT":"-0.00000157","INCLINATION":"53.2168","ECCENTRICITY":"0.00009920","NORAD_CAT_ID":"52138"},{"PERIAPSIS":"539.039","ARG_OF_PERICENTER":"95.9990","TLE_LINE2":"2 52139  53.2172  61.0989 0001028  95.9990 264.1119 15.08838377 64012","CENTER_NAME":"EARTH","TIME_SYSTEM":"UTC","TLE_LINE1":"1 52139U 22029BD  23126.19548598 -.00000188  00000-0  62892-5 0  9998","REV_AT_EPOCH":"6401","REF_FRAME":"TEME","MEAN_MOTION_DDOT":"0.0000000000000","FILE":"3902298","INCLINATION":"53.2172","NORAD_CAT_ID":"52139","ECCENTRICITY":"0.00010280","MEAN_MOTION_DOT":"-0.00000188","ELEMENT_SET_NO":"999","COUNTRY_CODE":"US","GP_ID":"231352612","PERIOD":"95.438","SITE":"AFETR","OBJECT_TYPE":"PAYLOAD","EPHEMERIS_TYPE":"0","CLASSIFICATION_TYPE":"U","EPOCH":"2023-05-06T04:41:29.988672","MEAN_ELEMENT_THEORY":"SGP4","MEAN_MOTION":"15.08838377","OBJECT_NAME":"STARLINK-3730","OBJECT_ID":"2022-029BD","MEAN_ANOMALY":"264.1119","BSTAR":"0.00000628920000","LAUNCH_DATE":"2022-03-19","SEMIMAJOR_AXIS":"6917.885","APOAPSIS":"540.462","RA_OF_ASC_NODE":"61.0989","RCS_SIZE":"LARGE","DECAY_DATE":null},{"ARG_OF_PERICENTER":"88.8052","PERIAPSIS":"538.927","TLE_LINE2":"2 52140  53.2172  51.0615 0001159  88.8052 271.3073 15.08845491 64164","CENTER_NAME":"EARTH","TLE_LINE1":"1 52140U 22029BE  23126.20375891  .00000882  00000-0  73478-4 0  9997","TIME_SYSTEM":"UTC","REF_FRAME":"TEME","REV_AT_EPOCH":"6416","MEAN_MOTION_DDOT":"0.0000000000000","FILE":"3902298","NORAD_CAT_ID":"52140","ECCENTRICITY":"0.00011590","INCLINATION":"53.2172","MEAN_MOTION_DOT":"0.00000882","ELEMENT_SET_NO":"999","COUNTRY_CODE":"US","GP_ID":"231352854","PERIOD":"95.437","SITE":"AFETR","EPHEMERIS_TYPE":"0","OBJECT_TYPE":"PAYLOAD","CLASSIFICATION_TYPE":"U","MEAN_MOTION":"15.08845491","MEAN_ELEMENT_THEORY":"SGP4","OBJECT_NAME":"STARLINK-3682","EPOCH":"2023-05-06T04:53:24.769824","OBJECT_ID":"2022-029BE","MEAN_ANOMALY":"271.3073","BSTAR":"0.00007347800000","SEMIMAJOR_AXIS":"6917.864","LAUNCH_DATE":"2022-03-19","RCS_SIZE":"LARGE","RA_OF_ASC_NODE":"51.0615","APOAPSIS":"540.530","DECAY_DATE":null},{"SITE":"AFETR","PERIOD":"95.438","OBJECT_NAME":"STARLINK-3810","MEAN_MOTION":"15.08836239","MEAN_ELEMENT_THEORY":"SGP4","EPOCH":"2023-05-06T08:00:16.389792","EPHEMERIS_TYPE":"0","OBJECT_TYPE":"PAYLOAD","CLASSIFICATION_TYPE":"U","BSTAR":"0.00001888800000","LAUNCH_DATE":"2022-04-21","SEMIMAJOR_AXIS":"6917.892","OBJECT_ID":"2022-041A","MEAN_ANOMALY":"269.0206","RA_OF_ASC_NODE":"90.4921","RCS_SIZE":"LARGE","APOAPSIS":"540.453","DECAY_DATE":null,"TLE_LINE2":"2 52261  53.2163  90.4921 0001006  91.0902 269.0206 15.08836239 57609","CENTER_NAME":"EARTH","PERIAPSIS":"539.061","ARG_OF_PERICENTER":"91.0902","MEAN_MOTION_DDOT":"0.0000000000000","FILE":"3902298","TLE_LINE1":"1 52261U 22041A   23126.33352303  .00000013  00000-0  18888-4 0  9992","TIME_SYSTEM":"UTC","REF_FRAME":"TEME","REV_AT_EPOCH":"5760","NORAD_CAT_ID":"52261","ECCENTRICITY":"0.00010060","INCLINATION":"53.2163","MEAN_MOTION_DOT":"0.00000013","COUNTRY_CODE":"US","GP_ID":"231352862","ELEMENT_SET_NO":"999"},{"OBJECT_NAME":"STARLINK-3761","MEAN_ELEMENT_THEORY":"SGP4","MEAN_MOTION":"15.08841017","EPOCH":"2023-05-06T07:58:53.049216","CLASSIFICATION_TYPE":"U","EPHEMERIS_TYPE":"0","OBJECT_TYPE":"PAYLOAD","PERIOD":"95.437","SITE":"AFETR","DECAY_DATE":null,"RA_OF_ASC_NODE":"90.4380","RCS_SIZE":"LARGE","APOAPSIS":"540.503","SEMIMAJOR_AXIS":"6917.877","LAUNCH_DATE":"2022-04-21","BSTAR":"-0.00000253720000","MEAN_ANOMALY":"262.6664","OBJECT_ID":"2022-041B","FILE":"3902298","MEAN_MOTION_DDOT":"0.0000000000000","REF_FRAME":"TEME","REV_AT_EPOCH":"5760","TLE_LINE1":"1 52262U 22041B   23126.33255844 -.00000328  00000-0 -25372-5 0  9993","TIME_SYSTEM":"UTC","CENTER_NAME":"EARTH","TLE_LINE2":"2 52262  53.2163  90.4380 0001099  97.4453 262.6664 15.08841017 57609","PERIAPSIS":"538.982","ARG_OF_PERICENTER":"97.4453","GP_ID":"231352119","COUNTRY_CODE":"US","ELEMENT_SET_NO":"999","MEAN_MOTION_DOT":"-0.00000328","NORAD_CAT_ID":"52262","ECCENTRICITY":"0.00010990","INCLINATION":"53.2163"},{"OBJECT_NAME":"STARLINK-3786","MEAN_ELEMENT_THEORY":"SGP4","MEAN_MOTION":"15.08836791","EPOCH":"2023-05-06T08:04:11.637984","EPHEMERIS_TYPE":"0","OBJECT_TYPE":"PAYLOAD","CLASSIFICATION_TYPE":"U","PERIOD":"95.438","SITE":"AFETR","RCS_SIZE":"LARGE","RA_OF_ASC_NODE":"90.4679","APOAPSIS":"540.542","DECAY_DATE":null,"BSTAR":"0.00007309600000","SEMIMAJOR_AXIS":"6917.890","LAUNCH_DATE":"2022-04-21","OBJECT_ID":"2022-041C","MEAN_ANOMALY":"260.4999","MEAN_MOTION_DDOT":"0.0000000000000","FILE":"3902298","TLE_LINE1":"1 52263U 22041C   23126.33624581  .00000876  00000-0  73096-4 0  9993","TIME_SYSTEM":"UTC","REF_FRAME":"TEME","REV_AT_EPOCH":"5760","TLE_LINE2":"2 52263  53.2160  90.4679 0001138  99.6122 260.4999 15.08836791 57609","CENTER_NAME":"EARTH","ARG_OF_PERICENTER":"99.6122","PERIAPSIS":"538.968","COUNTRY_CODE":"US","GP_ID":"231352369","ELEMENT_SET_NO":"999","ECCENTRICITY":"0.00011380","NORAD_CAT_ID":"52263","INCLINATION":"53.2160","MEAN_MOTION_DOT":"0.00000876"},{"ARG_OF_PERICENTER":"88.3303","PERIAPSIS":"539.077","TLE_LINE2":"2 52264  53.2162  91.0957 0000970  88.3303 271.7800 15.08839105 57582","CENTER_NAME":"EARTH","TLE_LINE1":"1 52264U 22041D   23126.19640441 -.00000179  00000-0  68355-5 0  9991","TIME_SYSTEM":"UTC","REF_FRAME":"TEME","REV_AT_EPOCH":"5758","MEAN_MOTION_DDOT":"0.0000000000000","FILE":"3902298","ECCENTRICITY":"0.00009700","NORAD_CAT_ID":"52264","INCLINATION":"53.2162","MEAN_MOTION_DOT":"-0.00000179","ELEMENT_SET_NO":"999","COUNTRY_CODE":"US","GP_ID":"231353120","PERIOD":"95.438","SITE":"AFETR","EPHEMERIS_TYPE":"0","OBJECT_TYPE":"PAYLOAD","CLASSIFICATION_TYPE":"U","MEAN_ELEMENT_THEORY":"SGP4","MEAN_MOTION":"15.08839105","OBJECT_NAME":"STARLINK-3795","EPOCH":"2023-05-06T04:42:49.341024","OBJECT_ID":"2022-041D","MEAN_ANOMALY":"271.7800","BSTAR":"0.00000683550000","LAUNCH_DATE":"2022-04-21","SEMIMAJOR_AXIS":"6917.883","RCS_SIZE":"LARGE","RA_OF_ASC_NODE":"91.0957","APOAPSIS":"540.419","DECAY_DATE":null},{"MEAN_MOTION_DDOT":"0.0000000000000","FILE":"3902298","TLE_LINE1":"1 52265U 22041E   23126.32522248 -.00002661  00000-0 -14923-3 0  9990","TIME_SYSTEM":"UTC","REF_FRAME":"TEME","REV_AT_EPOCH":"5760","TLE_LINE2":"2 52265  53.2170  90.5153 0001170 100.9449 259.1675 15.08820574 57602","CENTER_NAME":"EARTH","PERIAPSIS":"538.995","ARG_OF_PERICENTER":"100.9449","COUNTRY_CODE":"US","GP_ID":"231353363","ELEMENT_SET_NO":"999","NORAD_CAT_ID":"52265","ECCENTRICITY":"0.00011700","INCLINATION":"53.2170","MEAN_MOTION_DOT":"-0.00002661","OBJECT_NAME":"STARLINK-3740","MEAN_ELEMENT_THEORY":"SGP4","MEAN_MOTION":"15.08820574","EPOCH":"2023-05-06T07:48:19.222272","EPHEMERIS_TYPE":"0","OBJECT_TYPE":"PAYLOAD","CLASSIFICATION_TYPE":"U","PERIOD":"95.439","SITE":"AFETR","RA_OF_ASC_NODE":"90.5153","RCS_SIZE":"LARGE","APOAPSIS":"540.614","DECAY_DATE":null,"BSTAR":"-0.00014923000000","SEMIMAJOR_AXIS":"6917.940","LAUNCH_DATE":"2022-04-21","OBJECT_ID":"2022-041E","MEAN_ANOMALY":"259.1675"},{"SITE":"AFETR","PERIOD":"95.437","EPOCH":"2023-05-06T07:42:59.429088","MEAN_ELEMENT_THEORY":"SGP4","MEAN_MOTION":"15.08843414","OBJECT_NAME":"STARLINK-3739","CLASSIFICATION_TYPE":"U","OBJECT_TYPE":"PAYLOAD","EPHEMERIS_TYPE":"0","SEMIMAJOR_AXIS":"6917.870","LAUNCH_DATE":"2022-04-21","BSTAR":"0.00006351900000","MEAN_ANOMALY":"271.8615","OBJECT_ID":"2022-041F","DECAY_DATE":null,"APOAPSIS":"540.481","RCS_SIZE":"LARGE","RA_OF_ASC_NODE":"90.5336","CENTER_NAME":"EARTH","TLE_LINE2":"2 52266  53.2163  90.5336 0001078  88.2501 271.8615 15.08843414 57605","ARG_OF_PERICENTER":"88.2501","PERIAPSIS":"538.989","FILE":"3902298","MEAN_MOTION_DDOT":"0.0000000000000","REV_AT_EPOCH":"5760","REF_FRAME":"TEME","TIME_SYSTEM":"UTC","TLE_LINE1":"1 52266U 22041F   23126.32152117  .00000723  00000-0  63519-4 0  9996","MEAN_MOTION_DOT":"0.00000723","INCLINATION":"53.2163","ECCENTRICITY":"0.00010780","NORAD_CAT_ID":"52266","GP_ID":"231351619","COUNTRY_CODE":"US","ELEMENT_SET_NO":"999"}];
